{
  "norad_id": 54128,
  "name": "ONEWEB-0510",
  "history": [
    {
      "epoch": "2026-03-28T19:54:10.614528",
      "apogee_km": 1182.7732015434776,
      "perigee_km": 1180.7752682023247,
      "latitude_deg": 84.9755755044262,
      "longitude_deg": 32.41179391997866,
      "semi_major_axis_km": 7559.9112348729,
      "eccentricity": 0.00013214,
      "inclination_deg": 87.9148,
      "raan_deg": 290.4806,
      "arg_perigee_deg": 78.4814,
      "mean_anomaly_deg": 281.6468,
      "mean_motion_rev_day": 13.20771587
    },
    {
      "epoch": "2026-03-29T01:21:26.764128",
      "apogee_km": 1182.769467169017,
      "perigee_km": 1180.776674874297,
      "latitude_deg": -73.81927525334441,
      "longitude_deg": 54.22973791998811,
      "semi_major_axis_km": 7559.910071021657,
      "eccentricity": 0.0001318,
      "inclination_deg": 87.9148,
      "raan_deg": 290.4352,
      "arg_perigee_deg": 78.9263,
      "mean_anomaly_deg": 281.2019,
      "mean_motion_rev_day": 13.20771892
    }
  ]
}